PROBA-1                 
1 26958U 01049B   26169.99521882  .00000837  00000+0  57813-4 0  9997
2 26958  97.9595 178.5910 0056504 115.9362 244.7702 15.07497511343897
CUTE-1 (CO-55)          
1 27844U 03031E   26169.93387239  .00000210  00000+0  10966-3 0  9997
2 27844  98.6735 178.4708 0009656 172.9759 187.1557 14.24336606191927
CUBESAT XI-IV (CO-57)   
1 27848U 03031J   26169.92320627  .00000172  00000+0  94753-4 0  9992
2 27848  98.6765 178.1715 0009140 191.7752 168.3214 14.23621597191622
APRIZESAT 4             
1 35684U 09041D   26169.94283362  .00000470  00000+0  62791-4 0  9990
2 35684  98.1412 245.2984 0042294 317.2352  42.5573 14.83881220911623
APRIZESAT 3             
1 35686U 09041F   26169.90459361  .00001564  00000+0  13903-3 0  9997
2 35686  98.2066 323.2105 0062798  62.2169 298.5398 14.96246864916634
PROBA-2                 
1 36037U 09059B   26169.75353534  .00000126  00000+0  39902-4 0  9996
2 36037  98.2451 353.0845 0011946 276.7283  83.2554 14.54863007881758
APRIZESAT 5             
1 37792U 11044E   26169.76376915  .00000861  00000+0  11598-3 0  9997
2 37792  98.2452 102.8488 0052213 359.2691   0.8435 14.81079046799026
APRIZESAT 6             
1 37793U 11044F   26169.70424558  .00000606  00000+0  92657-4 0  9992
2 37793  98.2362  80.2348 0044486  81.3364 335.6808 14.76917858797379
PROBA-V                 
1 39159U 13021A   26169.38428133  .00000046  00000+0  38301-4 0  9998
2 39159  98.3584 147.9318 0005185 120.6226 239.5465 14.23597149681281
APRIZESAT 7             
1 39416U 13066A   26169.76400635  .00000903  00000+0  94718-4 0  9998
2 39416  97.7709 122.9612 0035119 203.9549 156.0038 14.91567039681461
APRIZESAT 8             
1 39425U 13066K   26169.82297819  .00000711  00000+0  83016-4 0  9999
2 39425  97.8220 117.2680 0044381 280.9923  78.6303 14.87655146679917
BUGSAT-1 (TITA)         
1 40014U 14033E   26169.95088049  .00002826  00000+0  15140-3 0  9998
2 40014  98.0427 262.6028 0028150 172.3926 187.7737 15.15596633656105
SAUDISAT 4              
1 40016U 14033G   26169.40381897  .00000519  00000+0  74909-4 0  9993
2 40016  97.7584 315.4963 0046120  70.1505 290.4670 14.79546128646253
APRIZESAT 9             
1 40018U 14033J   26169.90446257  .00000549  00000+0  88031-4 0  9996
2 40018  97.9064 303.0611 0065825 193.6175 166.3260 14.74216525643815
APRIZESAT 10            
1 40019U 14033K   26169.89536284  .00000335  00000+0  60735-4 0  9999
2 40019  97.9653 296.8166 0077399 268.2896  90.9444 14.70883681642502
TECHDEMOSAT-1 (TDS-1)   
1 40076U 14037H   26169.94379529  .00006132  00000+0  34856-3 0  9994
2 40076  98.3815 162.3305 0004595 257.7313 102.3401 15.13313187648499
TECHNOSAT               
1 42829U 17042E   26169.91148260  .00002864  00000+0  20538-3 0  9994
2 42829  97.4294 327.5032 0019076  88.8096 271.5316 15.04971443486962
FLYING LAPTOP           
1 42831U 17042G   26169.98527682  .00002712  00000+0  21529-3 0  9996
2 42831  97.4695 325.4483 0019616 115.7715 244.5537 15.01155403486721
HAWK-A                  
1 43765U 18099H   26169.85762048  .00004719  00000+0  19115-3 0  9996
2 43765  97.3908 222.0720 0033083 279.6840  80.0661 15.24658193413352
HAWK-B                  
1 43794U 18099AN  26169.88114917  .00004656  00000+0  19954-3 0  9998
2 43794  97.3956 221.5069 0030380 298.6640  61.1542 15.22840318413294
HAWK-C                  
1 43799U 18099AT  26169.69941936  .00006029  00000+0  21791-3 0  9999
2 43799  97.3885 222.8355 0038707 280.1895  79.4980 15.28119893414147
SALSAT                  
1 46495U 20068K   26169.97697597  .00005999  00000+0  21050-3 0  9999
2 46495  97.8853 173.1506 0007950 300.6759  59.3696 15.29820569315637
HAWK-2C                 
1 47502U 21006CT  26169.84754888  .00005119  00000+0  15455-3 0  9991
2 47502  97.2273 214.1245 0006886 179.9530 180.1716 15.34679584299759
HAWK-2A                 
1 47505U 21006CW  26169.85002526  .00005111  00000+0  15425-3 0  9999
2 47505  97.2314 214.8057 0006300 182.7979 177.3230 15.34694378299753
HAWK-2B                 
1 47508U 21006CZ  26169.84546472  .00005675  00000+0  17050-3 0  9995
2 47508  97.2184 213.1303 0006913 181.2785 178.8442 15.34784463299752
HAWK-3B                 
1 48931U 21059BE  26169.79055843  .00036971  00000+0  31249-3 0  9994
2 48931  97.6657   6.6497 0003184 322.7987  37.3053 15.69671922278100
HAWK-3C                 
1 48948U 21059BX  26169.08897472  .00034621  00000+0  29341-3 0  9996
2 48948  97.6772  11.5690 0003490 328.3716  31.7335 15.69618054277992
HAWK-3A                 
1 48957U 21059CG  26169.28008273  .00038183  00000+0  32291-3 0  9996
2 48957  97.6716   8.9829 0003460 329.5051  30.6008 15.69650937278022
HAWK-5C                 
1 52754U 22057Y   26169.91459663  .00015078  00000+0  25717-3 0  9991
2 52754  97.6609 329.6924 0004904  78.1923 281.9879 15.51442836226614
HAWK-5B                 
1 52756U 22057AA  26169.91444388  .00015050  00000+0  25664-3 0  9992
2 52756  97.6615 328.0415 0005569  70.8794 289.3060 15.51443905226616
